AKEBONO (EXOS-D)        
1 19822U 89016A   19291.75227984  .00018067  74579-6  31507-3 0  9991
2 19822  75.0310   3.7601 1770938 322.8542  26.1832 11.99993954 10381
HST                     
1 20580U 90037B   19292.12359954  .00000392  00000-0  12924-4 0  9991
2 20580  28.4686 122.3292 0002706   6.1253 290.2758 15.09282777419403
POLAR                   
1 23802U 96013A   19291.32599896  .00000092  00000-0  00000+0 0  9997
2 23802  78.7069 253.2564 6572513 291.3598  13.0021  1.29845555113238
SWAS                    
1 25560U 98071A   19292.12507811  .00000069  00000-0  15063-4 0  9995
2 25560  69.8976 273.3105 0009620 324.4382  35.6131 14.93783783133053
ORSTED                  
1 25635U 99008B   19291.77265488  .00000042  00000-0  17326-4 0  9995
2 25635  96.4804   7.8152 0139862  45.4139 315.8373 14.48170293 89491
CXO                     
1 25867U 99040B   19293.51465271  .00000833  00000-0  00000-0 0  9999
2 25867  66.1526 272.9545 7373644 231.6181   0.4660  0.37803482  8151
XMM-NEWTON              
1 25989U 99066A   19293.23034191  .00000021  00000-0  00000+0 0  9992
2 25989  71.0715 328.2483 7462652  94.4502 359.7055  0.50132215 25170
TERRA                   
1 25994U 99068A   19292.04151528 -.00000475  00000-0 -95516-4 0  9998
2 25994  98.1994   4.7047 0001650  96.3866 263.7522 14.57112502 55019
CLUSTER II-FM7 (SAMBA)  
1 26410U 00041A   19294.61518913  .00000270  00000-0  00000+0 0  9995
2 26410 131.4183 339.8371 4194383 176.5767   0.7949  0.44192097 21289
CLUSTER II-FM6 (SALSA)  
1 26411U 00041B   19294.54653402  .00000000  00000-0  00000+0 0  9992
2 26411 131.0100 340.9773 5319787 183.4583   0.8422  0.44218952 20392
CLUSTER II-FM5 (RUMBA)  
1 26463U 00045A   19294.80704396  .00000232  00000-0  00000+0 0  9998
2 26463 134.6340 340.3265 4956841 182.7461   0.7959  0.44302231 21869
CLUSTER II-FM8 (TANGO)  
1 26464U 00045B   19291.24804268  .00000302  00000-0  00000-0 0  9992
2 26464 131.4120 339.8100 4189840 176.4617 187.7432  0.44219321  9531
ODIN                    
1 26702U 01007A   19291.79098765 -.00000023  00000-0  25505-5 0  9996
2 26702  97.5699 307.6930 0011485  26.4207 333.7604 15.07886437 19647
TIMED                   
1 26998U 01055B   19292.11827008  .00000078  00000-0  12523-4 0  9997
2 26998  74.0731  55.5968 0001868 245.6047 114.4939 14.88138974968509
RHESSI                  
1 27370U 02004A   19292.13815546  .00001550  00000-0  53612-4 0  9993
2 27370  38.0326 228.3412 0011781 162.2280 197.8904 15.31926097977154
INTEGRAL                
1 27540U 02048A   19276.40000000  .00000517  00000-0  00000+0 0  9993
2 27540  50.7010 135.2800 8846573 282.4460 346.1960  0.37581045 17425
CORIOLIS                
1 27640U 03001A   19291.66257698 -.00000003  00000-0  19490-4 0  9995
2 27640  98.7322 299.7687 0014467  19.2052 117.0064 14.19019981869006
SORCE                   
1 27651U 03004A   19292.12606960  .00000055  00000-0  19950-4 0  9999
2 27651  39.9952 241.3367 0022402 119.5587 240.7438 14.89041548908102
MOST                    
1 27843U 03031D   19291.63253635 -.00000022  00000-0  10061-4 0  9993
2 27843  98.7125 297.4799 0011086  75.6663 284.5743 14.20597492845120
SCISAT 1                
1 27858U 03036A   19291.55363504  .00000047  00000-0  11613-4 0  9992
2 27858  73.9319 304.3270 0008715 217.1589 142.8983 14.77261908871788
SWIFT                   
1 28485U 04047A   19291.34770143  .00000824  00000-0  25942-4 0  9993
2 28485  20.5572 286.5431 0010978 221.4838 138.4762 15.04458737816811
FORMOSAT-3 FM6          
1 29047U 06011A   19291.86986229  .00000022  00000-0  24794-4 0  9996
2 29047  71.9779 245.0942 0048413 121.4149 239.1736 14.28698450706676
FORMOSAT-3 FM1          
1 29048U 06011B   19291.74261530  .00000076  00000-0  46233-4 0  9996
2 29048  71.9657 156.5574 0042089  77.2217 283.3618 14.28657727709143
FORMOSAT-3 FM5          
1 29049U 06011C   19291.47715999  .00000054  00000-0  37544-4 0  9991
2 29049  72.0205 327.3641 0032902 108.3842 252.0877 14.28741990704894
FORMOSAT-3 FM3          
1 29050U 06011D   19291.74893935  .00000141  00000-0  39898-4 0  9991
2 29050  72.0141 137.6992 0048722  44.3054 316.1981 14.58842887720938
FORMOSAT-3 FM4          
1 29051U 06011E   19291.48210345  .00000103  00000-0  55774-4 0  9990
2 29051  72.0056 229.8676 0068996 343.3145  16.5720 14.28769181707484
FORMOSAT-3 FM2          
1 29052U 06011F   19291.63920542  .00000040  00000-0  31953-4 0  9998
2 29052  72.0333 303.0311 0038163  65.6420 294.8693 14.28869278705832
CLOUDSAT                
1 29107U 06016A   19291.94957072  .00000052  00000-0  19712-4 0  9998
2 29107  98.1990 235.4526 0002855  73.0274 287.1240 14.62339527716883
CALIPSO                 
1 29108U 06016B   19291.94911961  .00000093  00000-0  27828-4 0  9998
2 29108  98.1983 235.2670 0001223  83.2375 276.8966 14.62344024716874
HINODE (SOLAR-B)        
1 29479U 06041A   19292.10189765  .00000045  00000-0  17511-4 0  9990
2 29479  98.1671 300.6733 0018096  54.1725 306.1156 14.65020006698419
SJ-6C                   
1 29505U 06046A   19292.06840193  .00000422  00000-0  44232-4 0  9998
2 29505  97.8263 301.5574 0005377 106.5177 253.6582 14.94746297707404
SJ-6D                   
1 29506U 06046B   19292.07107043  .00000249  00000-0  29123-4 0  9999
2 29506  97.8462 301.5435 0001730 160.1314 199.9965 14.93473275706992
AGILE                   
1 31135U 07013A   19292.13297959  .00002305  00000-0  36629-4 0  9992
2 31135   2.4681 287.6005 0012049 350.8183   9.1650 15.31831191694810
AIM                     
1 31304U 07015A   19291.72457903  .00000595  00000-0  37455-4 0  9990
2 31304  97.9377 159.9630 0006561 103.2998 256.8963 15.13251863683975
FGRST (GLAST)           
1 33053U 08029A   19291.46061273  .00000501  00000-0  11897-4 0  9990
2 33053  25.5832 315.0547 0012727  75.1340 285.0604 15.11262917626537
WISE                    
1 36119U 09071A   19292.14891671  .00000554  00000-0  21810-4 0  9997
2 36119  97.3604 326.2346 0003454 137.9915 222.1591 15.29766173546776
SDO                     
1 36395U 10005A   19291.54410441 -.00000043  00000-0  00000+0 0  9994
2 36395  29.9181 125.4465 0001638  47.3924 308.0160  1.00274385 35626
CRYOSAT 2               
1 36508U 10013A   19291.91525870  .00000019  00000-0  38663-5 0  9997
2 36508  92.0321  48.9152 0005785 334.2930  25.7989 14.52174018505079
X-SAT                   
1 37389U 11015C   19292.09824795 -.00000016  00000-0  11190-4 0  9999
2 37389  98.4725 351.5587 0012958 279.7886  80.1831 14.24378235441787
GCOM-W1 (SHIZUKU)       
1 38337U 12025A   19292.07151201  .00000060  00000-0  23345-4 0  9991
2 38337  98.2044 230.4870 0001613  37.8301  26.5346 14.57092964394706
NUSTAR                  
1 38358U 12031A   19292.13795199  .00000988  00000-0  29681-4 0  9996
2 38358   6.0259 229.0854 0011704 355.2011   4.8006 14.88204935399857
RBSP A                  
1 38752U 12046A   19291.21304663  .00002677  00000-0  43103-3 0  9991
2 38752   9.7640 143.8604 6934917 210.3187  79.1711  2.73886856 69880
RBSP B                  
1 38753U 12046B   19291.49530298  .00001583  00000-0  28452-3 0  9992
2 38753   9.8191 158.2601 6942988 182.4769 170.2364  2.72640298 69303
NEOSSAT                 
1 39089U 13009D   19291.60983305  .00000003  00000-0  16540-4 0  9991
2 39089  98.4849 133.0764 0010260 291.9212  68.0882 14.34479251347738
IRIS                    
1 39197U 13033A   19291.67963509  .00000069  00000-0  16645-4 0  9997
2 39197  97.9526 111.5611 0026512 296.2392  63.6094 14.78663611340226
HISAKI (SPRINT-A)       
1 39253U 13049A   19291.63000194 -.00000019  00000-0 -11102-3 0  9994
2 39253  29.7208 348.1009 0137299  94.1116 267.5161 13.55218535301044
CASSIOPE                
1 39265U 13055A   19291.88255814  .00002613  00000-0  75012-4 0  9993
2 39265  80.9711 207.7540 0664612 291.3798  61.7734 14.28245852313165
STSAT-3                 
1 39422U 13066G   19292.11255769  .00000030  00000-0  86303-5 0  9993
2 39422  97.5442 331.4422 0021583 281.1434  78.7345 14.89764446321052
SWARM B                 
1 39451U 13067A   19291.86732294  .00000288  00000-0  11186-4 0  9991
2 39451  87.7550 352.5392 0003945  79.7523 280.4167 15.21619939313077
SWARM A                 
1 39452U 13067B   19291.91394588  .00001044  00000-0  21827-4 0  9992
2 39452  87.3535 218.8131 0002400  91.9815 268.1717 15.44087744331754
SWARM C                 
1 39453U 13067C   19291.91387906  .00000292  00000-0  53518-5 0  9996
2 39453  87.3524 220.2485 0002408  92.0926 268.0607 15.44090033331713
BRITE-TORONTO           
1 40020U 14033L   19291.87236920  .00000053  00000-0  17239-4 0  9990
2 40020  97.7380 128.8899 0088546 126.2669 234.6759 14.66593908285215
OCO 2                   
1 40059U 14035A   19291.91894088  .00000015  00000-0  13354-4 0  9996
2 40059  98.2047 231.0569 0001291  78.0739 282.0604 14.57114209281707
BRITE-PL 2              
1 40119U 14049B   19291.79576347  .00000079  00000-0  15788-4 0  9992
2 40119  97.9031  21.3526 0017533 177.5422 182.5881 14.84433687279696
RESURS P2               
1 40360U 14087A   19292.08840486  .00000507  00000-0  18140-4 0  9994
2 40360  97.2564  20.5201 0008844 344.2468 136.6260 15.33244737269171
MMS 1                   
1 40482U 15011A   19291.93844890 -.00000156  00000-0  00000+0 0  9995
2 40482  19.7325 119.7097 8900446  15.8443 353.4265  0.28563044 10525
MMS 2                   
1 40483U 15011B   19285.01567863 -.00000091  00000-0  00000+0 0  9998
2 40483  19.4449 119.6575 8899670  15.7594   1.8109  0.28599750 10481
MMS 3                   
1 40484U 15011C   19288.51123539 -.00000041  00000-0  00000+0 0  9990
2 40484  19.6044 119.7134 8902596  15.7530   1.1574  0.28568961 10499
MMS 4                   
1 40485U 15011D   19291.93845075 -.00000156  00000-0  00000+0 0  9994
2 40485  19.7327 119.7029 8899440  15.8416 353.4658  0.28563079 10508
ASTROSAT                
1 40930U 15052A   19292.03827186  .00000749  00000-0  16301-4 0  9992
2 40930   5.9968 270.1417 0007997  79.4101 280.6927 14.76276235219336
DAMPE                   
1 41173U 15078A   19292.06260671  .00000025  00000-0  39282-5 0  9994
2 41173  97.3117 286.9076 0014962  31.4612  54.4027 15.23818623213482
PISAT                   
1 41784U 16059B   19291.71386092  .00000084  00000-0  25319-4 0  9999
2 41784  98.0555 349.3227 0031814   0.4890 359.6338 14.63458688163400
HXMT (HUIYAN)           
1 42758U 17034A   19292.21911438  .00000086  00000-0  19145-4 0  9991
2 42758  43.0188 284.7150 0012233 302.8745 122.1260 15.08674294129281
FLYING LAPTOP           
1 42831U 17042G   19292.14043373  .00000012  00000-0  65476-5 0  9996
2 42831  97.5478 179.9068 0014663  18.6710 341.5044 14.91043149123185
PICSAT                  
1 43132U 18004X   19291.13272572  .00001153  00000-0  50843-4 0  9991
2 43132  97.4769 358.6527 0009719 178.9455 181.1804 15.23806081 97999
ZHANGZHENG-1 (CSES)     
1 43194U 18015C   19292.08515131  .00000828  00000-0  40283-4 0  9992
2 43194  97.4096  55.7188 0014351 239.1992 225.9328 15.21110401 94821
